NORAD_CAT_ID,OBJECT_NAME,OBJECT_TYPE,EPOCH,MEAN_MOTION,ECCENTRICITY,INCLINATION,RA_OF_ASC_NODE,ARG_OF_PERICENTER,MEAN_ANOMALY,BSTAR,MEAN_MOTION_DOT,MEAN_MOTION_DDOT,TLE_LINE0,TLE_LINE1,TLE_LINE2,SEMIMAJOR_AXIS,PERIOD,APOGEE,PERIGEE,DECAYED
55741.0,STARLINK-5592,PAYLOAD,2024-06-23 14:14:12,14.98334802,0.0003104,70.0003,18.1454,262.2318,97.8489,6.4979e-06,-1.5e-07,0.0,0 STARLINK-5592,1 55741U 23028A   24175.59320164 -.00000015  00000-0  64979-5 0  9993,2 55741  70.0003  18.1454 0003104 262.2318  97.8489 14.98334802 72746,6950.178,96.107,574.2,569.886,0.0
55741.0,STARLINK-5592,PAYLOAD,2024-06-23 20:38:44,14.98335964,0.0003078,70.0001,17.4717,260.0064,100.0748,3.243e-05,2.94e-06,0.0,0 STARLINK-5592,1 55741U 23028A   24175.86023930  .00000294  00000-0  32430-4 0  9998,2 55741  70.0001  17.4717 0003078 260.0064 100.0748 14.98335964 72589,6950.174,96.107,574.179,569.9,0.0
55741.0,STARLINK-5592,PAYLOAD,2024-06-23 22:14:52,14.98337303,0.0003092,70.0004,17.3041,260.0135,100.0675,3.4504e-05,3.19e-06,0.0,0 STARLINK-5592,1 55741U 23028A   24175.92699803  .00000319  00000-0  34504-4 0  9995,2 55741  70.0004  17.3041 0003092 260.0135 100.0675 14.98337303 72797,6950.17,96.107,574.184,569.886,0.0
55741.0,STARLINK-5592,PAYLOAD,2024-06-24 14:16:13,14.9832782,0.0003016,70.001,15.6185,263.5249,96.5566,5.7057e-05,5.88e-06,0.0,0 STARLINK-5592,1 55741U 23028A   24176.59460158  .00000588  00000-0  57057-4 0  9994,2 55741  70.0010  15.6185 0003016 263.5249  96.5566 14.98327820 72896,6950.2,96.107,574.161,569.968,0.0
55741.0,STARLINK-5592,PAYLOAD,2024-06-24 20:40:45,14.98324605,0.0003092,70.0007,14.9458,259.6844,100.3967,0.00013543,1.523e-05,0.0,0 STARLINK-5592,1 55741U 23028A   24176.86164155  .00001523  00000-0  13543-3 0  9993,2 55741  70.0007  14.9458 0003092 259.6844 100.3967 14.98324605 72738,6950.21,96.107,574.224,569.926,0.0
55741.0,STARLINK-5592,PAYLOAD,2024-06-25 14:18:14,14.98333779,0.0003029,70.0009,13.0943,256.2149,103.8673,-1.3791e-05,-2.58e-06,0.0,0 STARLINK-5592,1 55741U 23028A   24177.59599892 -.00000258  00000-0 -13791-4 0  9996,2 55741  70.0009  13.0943 0003029 256.2149 103.8673 14.98333779 73049,6950.181,96.107,574.151,569.941,0.0
55741.0,STARLINK-5592,PAYLOAD,2024-06-25 20:42:47,14.98298572,0.0002811,70.0009,12.4211,254.5932,105.4917,0.00059038,6.953e-05,0.0,0 STARLINK-5592,1 55741U 23028A   24177.86304571  .00006953  00000-0  59038-3 0  9993,2 55741  70.0009  12.4211 0002811 254.5932 105.4917 14.98298572 72880,6950.29,96.109,574.109,570.201,0.0
55741.0,STARLINK-5592,PAYLOAD,2024-06-25 22:18:54,14.98333736,0.0003026,70.0009,12.2528,256.2678,103.8145,9.8751e-07,-8.1e-07,0.0,0 STARLINK-5592,1 55741U 23028A   24177.92979777 -.00000081  00000-0  98751-6 0  9991,2 55741  70.0009  12.2528 0003026 256.2678 103.8145 14.98333736 73095,6950.181,96.107,574.149,569.943,0.0
55741.0,STARLINK-5592,PAYLOAD,2024-06-26 22:20:55,14.98328132,0.0002945,70.0008,9.7283,259.4424,100.6403,7.3233e-06,-6e-08,0.0,0 STARLINK-5592,1 55741U 23028A   24178.93120156 -.00000006  00000-0  73233-5 0  9996,2 55741  70.0008   9.7283 0002945 259.4424 100.6403 14.98328132 73249,6950.199,96.107,574.111,570.017,0.0
55741.0,STARLINK-5592,PAYLOAD,2024-06-27 22:22:56,14.98333842,0.0003191,70.0002,7.2033,270.6739,89.4054,4.7732e-05,4.77e-06,0.0,0 STARLINK-5592,1 55741U 23028A   24179.93259774  .00000477  00000-0  47732-4 0  9991,2 55741  70.0002   7.2033 0003191 270.6739  89.4054 14.98333842 73393,6950.181,96.107,574.264,569.828,0.0
55741.0,STARLINK-5592,PAYLOAD,2024-06-28 14:24:17,14.98332882,0.0003093,70.0005,5.519,271.372,88.7084,7.0034e-05,7.43e-06,0.0,0 STARLINK-5592,1 55741U 23028A   24180.60019805  .00000743  00000-0  70034-4 0  9993,2 55741  70.0005   5.5190 0003093 271.3720  88.7084 14.98332882 73499,6950.184,96.107,574.199,569.899,0.0
55741.0,STARLINK-5592,PAYLOAD,2024-06-28 22:24:56,14.98339902,0.0003025,70.0005,4.6773,271.3219,88.7594,0.00014229,1.606e-05,0.0,0 STARLINK-5592,1 55741U 23028A   24180.93399089  .00001606  00000-0  14229-3 0  9996,2 55741  70.0005   4.6773 0003025 271.3219  88.7594 14.98339902 73546,6950.162,96.106,574.13,569.925,0.0
55741.0,STARLINK-5592,PAYLOAD,2024-06-29 12:50:10,14.98326343,0.0002883,70.0014,3.1633,275.3736,84.7094,2.9226e-05,2.56e-06,0.0,0 STARLINK-5592,1 55741U 23028A   24181.53484259  .00000256  00000-0  29226-4 0  9991,2 55741  70.0014   3.1633 0002883 275.3736  84.7094 14.98326343 73438,6950.204,96.107,574.073,570.065,0.0
55741.0,STARLINK-5592,PAYLOAD,2024-06-29 14:26:18,14.98326058,0.0002891,70.0013,2.9948,274.3315,85.7513,2.0039e-05,1.46e-06,0.0,0 STARLINK-5592,1 55741U 23028A   24181.60160295  .00000146  00000-0  20039-4 0  9991,2 55741  70.0013   2.9948 0002891 274.3315  85.7513 14.98326058 73647,6950.205,96.107,574.079,570.061,0.0
55741.0,STARLINK-5592,PAYLOAD,2024-06-29 22:26:58,14.98327078,0.0002962,70.0005,2.1524,269.794,90.288,2.1907e-05,1.68e-06,0.0,0 STARLINK-5592,1 55741U 23028A   24181.93540219  .00000168  00000-0  21907-4 0  9994,2 55741  70.0005   2.1524 0002962 269.7940  90.2880 14.98327078 73697,6950.202,96.107,574.126,570.008,0.0
55741.0,STARLINK-5592,PAYLOAD,2024-06-30 14:28:18,14.98335806,0.0002829,70.0008,0.4695,271.8597,88.2238,-7.4347e-06,-1.82e-06,0.0,0 STARLINK-5592,1 55741U 23028A   24182.60299747 -.00000182  00000-0 -74347-5 0  9991,2 55741  70.0008   0.4695 0002829 271.8597  88.2238 14.98335806 73797,6950.175,96.107,574.006,570.074,0.0
55741.0,STARLINK-5592,PAYLOAD,2024-06-30 20:52:51,14.9833672,0.0002803,70.0008,359.7967,267.8413,92.2425,4.8972e-06,-3.5e-07,0.0,0 STARLINK-5592,1 55741U 23028A   24182.87003541 -.00000035  00000-0  48972-5 0  9996,2 55741  70.0008 359.7967 0002803 267.8413  92.2425 14.98336720 73635,6950.172,96.107,573.985,570.089,0.0
55741.0,STARLINK-5592,PAYLOAD,2024-07-01 12:54:12,14.98326389,0.0002835,70.0007,358.1131,270.563,89.5204,5.3666e-05,5.47e-06,0.0,0 STARLINK-5592,1 55741U 23028A   24183.53764010  .00000547  00000-0  53666-4 0  9997,2 55741  70.0007 358.1131 0002835 270.5630  89.5204 14.98326389 73732,6950.204,96.107,574.039,570.099,0.0
55741.0,STARLINK-5592,PAYLOAD,2024-07-01 14:30:20,14.98326256,0.0002844,70.0007,357.9447,270.4146,89.6687,5.0905e-05,5.14e-06,0.0,0 STARLINK-5592,1 55741U 23028A   24183.60440036  .00000514  00000-0  50905-4 0  9991,2 55741  70.0007 357.9447 0002844 270.4146  89.6687 14.98326256 73942,6950.204,96.107,574.046,570.093,0.0
55741.0,STARLINK-5592,PAYLOAD,2024-07-01 20:54:52,14.98328881,0.0002837,70.0008,357.2715,270.1936,89.8898,7.5493e-05,8.08e-06,0.0,0 STARLINK-5592,1 55741U 23028A   24183.87143850  .00000808  00000-0  75493-4 0  9999,2 55741  70.0008 357.2715 0002837 270.1936  89.8898 14.98328881 73986,6950.196,96.107,574.033,570.09,0.0
55741.0,STARLINK-5592,PAYLOAD,2024-07-02 12:56:13,14.98327493,0.0002847,70.001,355.5887,269.3006,90.7827,-5.4249e-06,-1.58e-06,0.0,0 STARLINK-5592,1 55741U 23028A   24184.53904221 -.00000158  00000-0 -54249-5 0  9997,2 55741  70.0010 355.5887 0002847 269.3006  90.7827 14.98327493 73889,6950.201,96.107,574.044,570.087,0.0
55741.0,STARLINK-5592,PAYLOAD,2024-07-02 14:32:21,14.98327649,0.0002826,70.0009,355.4204,269.5187,90.5648,-1.7339e-05,-3e-06,0.0,0 STARLINK-5592,1 55741U 23028A   24184.60580254 -.00000300  00000-0 -17339-4 0  9998,2 55741  70.0009 355.4204 0002826 269.5187  90.5648 14.98327649 74094,6950.2,96.107,574.029,570.101,0.0
55741.0,STARLINK-5592,PAYLOAD,2024-07-02 20:56:53,14.98329142,0.0002895,70.0008,354.7465,268.4387,91.644,-2.6444e-05,-4.08e-06,0.0,0 STARLINK-5592,1 55741U 23028A   24184.87284172 -.00000408  00000-0 -26444-4 0  9993,2 55741  70.0008 354.7465 0002895 268.4387  91.6440 14.98329142 74137,6950.196,96.107,574.073,570.048,0.0
55741.0,STARLINK-5592,PAYLOAD,2024-07-03 12:58:14,14.98327937,0.0003007,70.0007,353.0627,269.5559,90.5256,5.0916e-05,5.15e-06,0.0,0 STARLINK-5592,1 55741U 23028A   24185.54044017  .00000515  00000-0  50916-4 0  9998,2 55741  70.0007 353.0627 0003007 269.5559  90.5256 14.98327937 74039,6950.199,96.107,574.154,569.974,0.0
55741.0,STARLINK-5592,PAYLOAD,2024-07-03 20:58:54,14.98332181,0.0003033,70.0007,352.2214,270.6724,89.4088,4.5818e-05,4.54e-06,0.0,0 STARLINK-5592,1 55741U 23028A   24185.87423790  .00000454  00000-0  45818-4 0  9990,2 55741  70.0007 352.2214 0003033 270.6724  89.4088 14.98332181 74282,6950.186,96.107,574.159,569.943,0.0
55741.0,STARLINK-5592,PAYLOAD,2024-07-04 14:36:23,14.98329626,0.0003131,70.0006,350.3697,271.0694,89.0106,3.1495e-05,2.83e-06,0.0,0 STARLINK-5592,1 55741U 23028A   24186.60859994  .00000283  00000-0  31495-4 0  9997,2 55741  70.0006 350.3697 0003131 271.0694  89.0106 14.98329626 74394,6950.194,96.107,574.235,569.883,0.0
55741.0,STARLINK-5592,PAYLOAD,2024-07-04 21:00:54,14.98333787,0.00031,70.0007,349.6963,270.7008,89.3795,7.5486e-05,8.08e-06,0.0,0 STARLINK-5592,1 55741U 23028A   24186.87563603  .00000808  00000-0  75486-4 0  9996,2 55741  70.0007 349.6963 0003100 270.7008  89.3795 14.98333787 74236,6950.181,96.107,574.201,569.892,0.0
55741.0,STARLINK-5592,PAYLOAD,2024-07-05 14:38:23,14.98331654,0.000302,70.001,347.8446,271.2914,88.7899,2.1585e-05,1.65e-06,0.0,0 STARLINK-5592,1 55741U 23028A   24187.60999819  .00000165  00000-0  21585-4 0  9997,2 55741  70.0010 347.8446 0003020 271.2914  88.7899 14.98331654 74542,6950.188,96.107,574.152,569.954,0.0
55741.0,STARLINK-5592,PAYLOAD,2024-07-05 21:02:55,14.9833558,0.000302,70.0011,347.1714,271.4027,88.6786,6.1551e-05,6.42e-06,0.0,0 STARLINK-5592,1 55741U 23028A   24187.87703411  .00000642  00000-0  61551-4 0  9994,2 55741  70.0011 347.1714 0003020 271.4027  88.6786 14.98335580 74581,6950.176,96.107,574.14,569.942,0.0
55741.0,STARLINK-5592,PAYLOAD,2024-07-06 13:04:16,14.98329818,0.0002956,70.0013,345.4884,270.7656,89.3164,-2.8355e-05,-4.31e-06,0.0,0 STARLINK-5592,1 55741U 23028A   24188.54463925 -.00000431  00000-0 -28355-4 0  9995,2 55741  70.0013 345.4884 0002956 270.7656  89.3164 14.98329818 74483,6950.193,96.107,574.113,570.004,0.0
